NORAD_CAT_ID,OBJECT_NAME,OBJECT_TYPE,EPOCH,MEAN_MOTION,ECCENTRICITY,INCLINATION,RA_OF_ASC_NODE,ARG_OF_PERICENTER,MEAN_ANOMALY,BSTAR,MEAN_MOTION_DOT,MEAN_MOTION_DDOT,TLE_LINE0,TLE_LINE1,TLE_LINE2,SEMIMAJOR_AXIS,PERIOD,APOGEE,PERIGEE,DECAYED
54061.0,STARLINK-5209,PAYLOAD,2023-02-24 12:59:24,15.08834389,0.0001318,53.2176,248.0379,90.2151,269.8992,-4.413e-05,-9.9e-06,0.0,0 STARLINK-5209,1 54061U 22136L   23055.54125710 -.00000990  00000-0 -44130-4 0  9996,2 54061  53.2176 248.0379 0001318  90.2151 269.8992 15.08834389 19897,6917.898,95.438,540.674,538.851,0.0
54061.0,STARLINK-5209,PAYLOAD,2023-02-24 19:20:57,15.08835285,0.0001221,53.2176,246.8486,87.9168,272.1964,-3.2134e-05,-7.99e-06,0.0,0 STARLINK-5209,1 54061U 22136L   23055.80621656 -.00000799  00000-0 -32134-4 0  9993,2 54061  53.2176 246.8486 0001221  87.9168 272.1964 15.08835285 19933,6917.895,95.438,540.604,538.915,0.0
54061.0,STARLINK-5209,PAYLOAD,2023-02-24 22:31:43,15.08837023,0.0001214,53.2176,246.2536,87.3655,272.7476,-1.8574e-05,-5.83e-06,0.0,0 STARLINK-5209,1 54061U 22136L   23055.93869516 -.00000583  00000-0 -18574-4 0  9999,2 54061  53.2176 246.2536 0001214  87.3655 272.7476 15.08837023 19958,6917.889,95.438,540.594,538.915,0.0
54061.0,STARLINK-5209,PAYLOAD,2023-02-25 19:11:44,15.08840736,0.000117,53.2173,242.3874,83.9212,276.1914,-4.0441e-05,-9.31e-06,0.0,0 STARLINK-5209,1 54061U 22136L   23056.79981512 -.00000931  00000-0 -40441-4 0  9990,2 54061  53.2173 242.3874 0001170  83.9212 276.1914 15.08840736 20568,6917.878,95.438,540.553,538.934,0.0
54061.0,STARLINK-5209,PAYLOAD,2023-02-26 11:05:35,15.08833863,0.0001197,53.2176,239.4133,79.7752,280.3375,5.7681e-05,6.3e-06,0.0,0 STARLINK-5209,1 54061U 22136L   23057.46221642  .00000630  00000-0  57681-4 0  9994,2 54061  53.2176 239.4133 0001197  79.7752 280.3375 15.08833863 20186,6917.899,95.438,540.592,538.936,0.0
54061.0,STARLINK-5209,PAYLOAD,2023-02-26 20:37:53,15.08842061,0.0001151,53.218,237.6295,81.5093,278.603,0.00010392,1.367e-05,0.0,0 STARLINK-5209,1 54061U 22136L   23057.85964963  .00001367  00000-0  10392-3 0  9992,2 54061  53.2180 237.6295 0001151  81.5093 278.6030 15.08842061 20727,6917.874,95.437,540.535,538.943,0.0
54061.0,STARLINK-5209,PAYLOAD,2023-02-27 04:34:50,15.08827649,8.81e-05,53.2177,236.1424,86.2182,273.8911,-5.9671e-05,-1.237e-05,0.0,0 STARLINK-5209,1 54061U 22136L   23058.19086269 -.00001237  00000-0 -59671-4 0  9996,2 54061  53.2177 236.1424 0000881  86.2182 273.8911 15.08827649 20776,6917.918,95.438,540.393,539.174,0.0
54061.0,STARLINK-5209,PAYLOAD,2023-02-27 18:53:17,15.08847092,0.0001115,53.2177,233.4665,82.5782,277.5336,6.257e-05,7.08e-06,0.0,0 STARLINK-5209,1 54061U 22136L   23058.78700867  .00000708  00000-0  62570-4 0  9990,2 54061  53.2177 233.4665 0001115  82.5782 277.5336 15.08847092 20865,6917.859,95.437,540.495,538.952,0.0
54061.0,STARLINK-5209,PAYLOAD,2023-02-28 04:25:36,15.08836669,7.48e-05,53.2181,231.6824,70.58,289.5273,-2.982e-05,-7.62e-06,0.0,0 STARLINK-5209,1 54061U 22136L   23059.18445540 -.00000762  00000-0 -29820-4 0  9992,2 54061  53.2181 231.6824 0000748  70.5800 289.5273 15.08836669 20924,6917.891,95.438,540.273,539.238,0.0
54061.0,STARLINK-5209,PAYLOAD,2023-02-28 15:33:20,15.08825452,0.0001305,53.2189,229.6027,78.6332,281.4807,-0.00013461,-2.429e-05,0.0,0 STARLINK-5209,1 54061U 22136L   23059.64815077 -.00002429  00000-0 -13461-3 0  9994,2 54061  53.2189 229.6027 0001305  78.6332 281.4807 15.08825452 20992,6917.925,95.438,540.693,538.887,0.0
54061.0,STARLINK-5209,PAYLOAD,2023-02-28 20:19:29,15.08834561,0.0001203,53.2183,228.7083,74.4477,285.6648,-9.7376e-05,-1.837e-05,0.0,0 STARLINK-5209,1 54061U 22136L   23059.84686458 -.00001837  00000-0 -97376-4 0  9995,2 54061  53.2183 228.7083 0001203  74.4477 285.6648 15.08834561 20540,6917.897,95.438,540.594,538.93,0.0
54061.0,STARLINK-5209,PAYLOAD,2023-03-01 16:59:29,15.08838038,0.0001299,53.2186,224.8443,79.7523,280.3616,1.6176e-05,-3e-07,0.0,0 STARLINK-5209,1 54061U 22136L   23060.70798218 -.00000030  00000-0  16176-4 0  9992,2 54061  53.2186 224.8443 0001299  79.7523 280.3616 15.08838038 21153,6917.886,95.438,540.65,538.853,0.0
54061.0,STARLINK-5209,PAYLOAD,2023-03-01 20:10:15,15.08843988,0.000128,53.2185,224.2494,80.8528,279.2609,-7.3833e-06,-4.05e-06,0.0,0 STARLINK-5209,1 54061U 22136L   23060.84045941 -.00000405  00000-0 -73833-5 0  9996,2 54061  53.2185 224.2494 0001280  80.8528 279.2609 15.08843988 20697,6917.868,95.437,540.619,538.848,0.0
54061.0,STARLINK-5209,PAYLOAD,2023-03-02 16:50:16,15.08836713,0.000135,53.2172,220.3821,79.4662,280.6482,0.0001543,2.168e-05,0.0,0 STARLINK-5209,1 54061U 22136L   23061.70157960  .00002168  00000-0  15430-3 0  9990,2 54061  53.2172 220.3821 0001350  79.4662 280.6482 15.08836713 20823,6917.89,95.438,540.689,538.822,0.0
54061.0,STARLINK-5209,PAYLOAD,2023-03-03 03:57:58,15.08838062,0.0001269,53.2182,218.3019,76.4076,283.7057,7.2917e-05,8.73e-06,0.0,0 STARLINK-5209,1 54061U 22136L   23062.16526164  .00000873  00000-0  72917-4 0  9992,2 54061  53.2182 218.3019 0001269  76.4076 283.7057 15.08838062 21377,6917.886,95.438,540.629,538.873,0.0
54061.0,STARLINK-5209,PAYLOAD,2023-03-03 19:51:48,15.08857961,0.0001362,53.2182,215.3295,74.8336,285.2807,0.00012677,1.731e-05,0.0,0 STARLINK-5209,1 54061U 22136L   23062.82764557  .00001731  00000-0  12677-3 0  9995,2 54061  53.2182 215.3295 0001362  74.8336 285.2807 15.08857961 21475,6917.825,95.436,540.633,538.748,0.0
54061.0,STARLINK-5209,PAYLOAD,2023-03-04 13:21:04,15.08833685,0.0001469,53.2189,212.0602,86.8968,273.2192,-5.5689e-05,-1.174e-05,0.0,0 STARLINK-5209,1 54061U 22136L   23063.55630623 -.00001174  00000-0 -55689-4 0  9996,2 54061  53.2189 212.0602 0001469  86.8968 273.2192 15.08833685 21583,6917.9,95.438,540.781,538.748,0.0
54061.0,STARLINK-5209,PAYLOAD,2023-03-04 19:42:36,15.08845622,0.0001301,53.2198,210.8684,98.133,261.9809,-8.6029e-06,-4.25e-06,0.0,0 STARLINK-5209,1 54061U 22136L   23063.82125656 -.00000425  00000-0 -86029-5 0  9992,2 54061  53.2198 210.8684 0001301  98.1330 261.9809 15.08845622 21621,6917.863,95.437,540.628,538.828,0.0
54061.0,STARLINK-5209,PAYLOAD,2023-03-05 10:01:06,15.088322,0.0001334,53.2176,208.1899,96.6595,263.4549,-0.0001407,-2.526e-05,0.0,0 STARLINK-5209,1 54061U 22136L   23064.41743267 -.00002526  00000-0 -14070-3 0  9991,2 54061  53.2176 208.1899 0001334  96.6595 263.4549 15.08832200 21713,6917.904,95.438,540.692,538.846,0.0
54061.0,STARLINK-5209,PAYLOAD,2023-03-06 01:54:56,15.08844763,0.0002342,53.2194,205.2198,84.4684,275.6575,-9.137e-05,-1.742e-05,0.0,0 STARLINK-5209,1 54061U 22136L   23065.07982273 -.00001742  00000-0 -91370-4 0  9994,2 54061  53.2194 205.2198 0002342  84.4684 275.6575 15.08844763 21819,6917.866,95.437,541.351,538.111,0.0
54061.0,STARLINK-5209,PAYLOAD,2023-03-06 17:48:46,15.08854262,8.14e-05,53.2187,202.2429,116.5658,243.5418,0.00015216,2.136e-05,0.0,0 STARLINK-5209,1 54061U 22136L   23065.74220439  .00002136  00000-0  15216-3 0  9997,2 54061  53.2187 202.2429 0000814 116.5658 243.5418 15.08854262 21911,6917.837,95.437,540.265,539.139,0.0
54061.0,STARLINK-5209,PAYLOAD,2023-03-07 01:45:44,15.08834463,0.000112,53.2181,200.7596,100.7525,259.3594,-8.5716e-05,-1.651e-05,0.0,0 STARLINK-5209,1 54061U 22136L   23066.07342669 -.00001651  00000-0 -85716-4 0  9990,2 54061  53.2181 200.7596 0001120 100.7525 259.3594 15.08834463 21968,6917.897,95.438,540.537,538.988,0.0
54061.0,STARLINK-5209,PAYLOAD,2023-03-07 17:39:35,15.08837779,0.0001046,53.2164,197.7875,114.9414,245.1686,-5.4032e-05,-1.148e-05,0.0,0 STARLINK-5209,1 54061U 22136L   23066.73582585 -.00001148  00000-0 -54032-4 0  9994,2 54061  53.2164 197.7875 0001046 114.9414 245.1686 15.08837779 21581,6917.887,95.438,540.476,539.029,0.0
54061.0,STARLINK-5209,PAYLOAD,2023-03-08 17:30:22,15.08838018,0.00016,53.2177,193.3243,88.2367,271.8809,2.6191e-06,-2.46e-06,0.0,0 STARLINK-5209,1 54061U 22136L   23067.72942945 -.00000246  00000-0  26191-5 0  9997,2 54061  53.2177 193.3243 0001600  88.2367 271.8809 15.08838018 21739,6917.886,95.438,540.858,538.645,0.0
54061.0,STARLINK-5209,PAYLOAD,2023-03-09 12:34:59,15.08854707,0.0001476,53.2184,189.7567,95.5108,264.6053,-0.00015247,-2.715e-05,0.0,0 STARLINK-5209,1 54061U 22136L   23068.52430237 -.00002715  00000-0 -15247-3 0  9994,2 54061  53.2184 189.7567 0001476  95.5108 264.6053 15.08854707 22331,6917.835,95.437,540.722,538.679,0.0
54061.0,STARLINK-5209,PAYLOAD,2023-03-10 17:11:55,15.08852904,0.0001501,53.2201,184.404,100.67,259.4462,0.0001066,1.41e-05,0.0,0 STARLINK-5209,1 54061U 22136L   23069.71661575  .00001410  00000-0  10660-3 0  9990,2 54061  53.2201 184.4040 0001501 100.6700 259.4462 15.08852904 22517,6917.841,95.437,540.744,538.668,0.0
54061.0,STARLINK-5209,PAYLOAD,2023-03-11 01:08:53,15.08824018,0.0002061,53.2202,182.9164,95.0321,265.0906,-0.00012452,-2.269e-05,0.0,0 STARLINK-5209,1 54061U 22136L   23070.04784384 -.00002269  00000-0 -12452-3 0  9998,2 54061  53.2202 182.9164 0002061  95.0321 265.0906 15.08824018 22562,6917.929,95.439,541.22,538.368,0.0
54061.0,STARLINK-5209,PAYLOAD,2023-03-11 10:41:11,15.0883628,0.0001342,53.2146,181.1337,84.4104,275.7041,-0.00013593,-2.45e-05,0.0,0 STARLINK-5209,1 54061U 22136L   23070.44527727 -.00002450  00000-0 -13593-3 0  9997,2 54061  53.2146 181.1337 0001342  84.4104 275.7041 15.08836280 22623,6917.892,95.438,540.685,538.828,0.0
54061.0,STARLINK-5209,PAYLOAD,2023-03-11 17:02:42,15.08863625,0.0001352,53.2194,179.9434,85.6705,274.4442,0.00011337,1.518e-05,0.0,0 STARLINK-5209,1 54061U 22136L   23070.71021079  .00001518  00000-0  11337-3 0  9992,2 54061  53.2194 179.9434 0001352  85.6705 274.4442 15.08863625 22668,6917.808,95.436,540.608,538.738,0.0
54061.0,STARLINK-5209,PAYLOAD,2023-03-12 12:07:20,15.08838233,9.88e-05,53.2182,176.3733,81.1693,278.9411,0.00012011,1.624e-05,0.0,0 STARLINK-5209,1 54061U 22136L   23071.50510158  .00001624  00000-0  12011-3 0  9999,2 54061  53.2182 176.3733 0000988  81.1693 278.9411 15.08838233 22784,6917.886,95.438,540.434,539.067,0.0
